NAVSTAR 77 (USA 289)    
1 43873U 18109A   24013.52400723  .00000023  00000+0  00000+0 0  9990
2 43873  55.2392 127.1808 0028471 192.1921 161.8406  2.00572619 37308
